FLOCK 2P-4              
1 41611U 16040N   17288.10501113  .00004044  00000-0  17480-3 0  9997
2 41611  97.4497 349.9936 0011664  32.0869 328.1075 15.22989404 72913
FLOCK 2P-10             
1 41612U 16040P   17288.14872980  .00004479  00000-0  19326-3 0  9998
2 41612  97.4504 350.1174 0011430  31.8962 328.2964 15.22990646 72922
FLOCK 2P-8              
1 41613U 16040Q   17288.16517263  .00002776  00000-0  12098-3 0  9998
2 41613  97.4497 350.0716 0011541  31.0632 329.1285 15.22981917 72921
FLOCK 2P-12             
1 41614U 16040R   17288.12681989  .00005830  00000-0  25062-3 0  9991
2 41614  97.4510 350.1842 0011284  31.8065 328.3850 15.22989777 72922
FLOCK 2P-7              
1 41615U 16040S   17288.15954377  .00002945  00000-0  12807-3 0  9996
2 41615  97.4496 350.0623 0011355  31.6557 328.5361 15.23007659 72925
FLOCK 2P-5              
1 41616U 16040T   17288.20356902  .00007122  00000-0  30529-3 0  9996
2 41616  97.4510 350.2341 0011235  30.8207 329.3687 15.23004728 72915
FLOCK 2P-1              
1 41617U 16040U   17288.12613378  .00009313  00000-0  39818-3 0  9995
2 41617  97.4513 350.1876 0010936  31.8146 328.3749 15.23008751 72920
FLOCK 2P-3              
1 41618U 16040V   17288.15419144  .00004303  00000-0  18577-3 0  9997
2 41618  97.4510 350.1413 0011148  31.7192 328.4714 15.22999068 72923
BEESAT-4                
1 41619U 16040W   17288.12644800  .00003467  00000-0  15799-3 0  9997
2 41619  97.4500 349.3028 0012146  16.9608 343.2031 15.21270503 60829
3CAT-2                  
1 41732U 16051B   17288.20080878  .00003193  00000-0  12938-3 0  9991
2 41732  97.3713 203.4034 0012734 203.5887 293.6548 15.25321691 64827
FLOCK 2E'-13            
1 41761U 98067KH  17287.98670774  .00020884  00000-0  22415-3 0  9991
2 41761  51.6365 146.4285 0005146 356.3743   3.7214 15.63740354 61635
FLOCK 2E'-14            
1 41762U 98067KJ  17288.01620236  .00022984  00000-0  24223-3 0  9997
2 41762  51.6376 145.9128 0004579 357.2141   2.8827 15.64143461 61647
FLOCK 2E'-16            
1 41763U 98067KK  17288.07526148  .00024545  00000-0  25158-3 0  9994
2 41763  51.6378 144.8041 0004077  12.7456 347.3642 15.64810203 61622
FLOCK 2E'-15            
1 41764U 98067KL  17288.00594863  .00020962  00000-0  22623-3 0  9990
2 41764  51.6375 146.5881 0004758   5.0573 355.0469 15.63598514 61598
FLOCK 2E'-18            
1 41769U 98067KM  17287.98793098  .00020107  00000-0  21678-3 0  9992
2 41769  51.6374 146.4606 0004028  33.9663 326.1589 15.63658194 61599
FLOCK 2E'-17            
1 41776U 98067KN  17287.97315279  .00022173  00000-0  23661-3 0  9999
2 41776  51.6383 146.3915 0004300  33.7241 326.4026 15.63851117 61580
FLOCK 2E'-19            
1 41777U 98067KP  17287.98812512  .00030112  00000-0  27403-3 0  9993
2 41777  51.6355 141.1641 0002825  37.6604 322.4590 15.67667577 61610
FLOCK 2E'-20            
1 41782U 98067KQ  17288.18133624  .00027937  00000-0  26579-3 0  9996
2 41782  51.6366 141.7488 0002887  37.0400 323.0794 15.66607040 61496
CANX-7                  
1 41788U 16059F   17287.98816223  .00010362  00000-0  18776-2 0  9996
2 41788  98.1866 349.1504 0036218 153.5265 206.8145 14.66049596 56132
ALSAT 1N                
1 41789U 16059G   17288.16096068  .00000338  00000-0  73288-4 0  9998
2 41789  98.1529 348.9450 0029644 136.0153 224.3419 14.64087646 56161
RAVAN                   
1 41849U 16067B   17288.19677371  .00001256  00000-0  11366-3 0  9997
2 41849  97.9426   8.2240 0007122 258.6114 101.4307 14.97276893 50467
CELTEE 1                
1 41850U 16067C   17288.20936562  .00000038  00000-0  86339-5 0  9992
2 41850  97.9410   8.0424 0007672 257.9201 102.1161 14.96649327 50453
OPTICUBE 04             
1 41851U 16067D   17288.22128925  .00000288  00000-0  30658-4 0  9990
2 41851  97.9406   8.0247 0007738 258.1516 101.8837 14.96551367 50459
AEROCUBE 8D             
1 41852U 16067E   17287.28784200  .00000612  00000-0  59540-4 0  9992
2 41852  97.9419   6.9603 0008498 261.1737  98.8522 14.96303001 50300
AEROCUBE 8C             
1 41853U 16067F   17288.16546990  .00000932  00000-0  87860-4 0  9994
2 41853  97.9421   7.8293 0008697 258.5258 101.4986 14.96268548 50433
PROMETHEUS 2-1          
1 41854U 16067G   17287.64690056  .00001357  00000-0  12550-3 0  9995
2 41854  97.9431   7.2731 0008879 260.8798  99.1418 14.96279222 50358
PROMETHEUS 2-3          
1 41855U 16067H   17287.18077748  .00001374  00000-0  12701-3 0  9999
2 41855  97.9433   6.8002 0009027 263.2153  96.8041 14.96272268 50286
LEMUR-2-XIAOQING        
1 41871U 16062C   17287.90456938  .00004105  00000-0  18604-3 0  9997
2 41871  51.6364 238.1096 0004654 307.3172  91.1403 15.23014609 49180
LEMUR-2-SOKOLSKY        
1 41872U 16062D   17288.09012152  .00005226  00000-0  23214-3 0  9993
2 41872  51.6687 237.0359 0004649 322.9834 100.8729 15.23134797 49204
LEMUR-2-ANUBHAVTHAKUR   
1 41873U 16062E   17288.09459813  .00002938  00000-0  14169-3 0  9999
2 41873  51.6442 238.4233 0004701 320.8378 103.1640 15.21874782 49176
LEMUR-2-WINGO           
1 41874U 16062F   17288.07627750  .00004713  00000-0  21361-3 0  9990
2 41874  51.6340 237.5427 0004744 286.5876 135.2899 15.22666411 49190
STARS-C                 
1 41895U 98067KR  17287.23381644  .00097463  00000-0  76172-3 0  9998
2 41895  51.6345 150.3856 0002098 103.0157 257.1075 15.70846708 46639
TANCREDO-1              
1 41931U 98067KT  17288.14848430  .02021129  38725-2  18462-2 0  9993
2 41931  51.6222 131.5188 0008889 267.1944  92.7849 16.12660122 42531
ITF-2                   
1 41932U 98067KU  17287.67296339  .00030147  00000-0  32303-3 0  9998
2 41932  51.6389 153.3893 0003366   4.0271 356.0750 15.63560864 42205
WASEDA-SAT3             
1 41933U 98067KV  17287.77787278  .00038157  00000-0  38628-3 0  9992
2 41933  51.6369 151.8037 0002974   7.3631 352.7407 15.64885138 42237
AOBA-VELOX 3            
1 41935U 98067KX  17288.07176221  .00034661  00000-0  35803-3 0  9996
2 41935  51.6385 150.7932 0002694  11.4418 348.6638 15.64423128 42379
OSNSAT                  
1 41939U 98067KZ  17287.65149369  .00108373  00000-0  69691-3 0  9990
2 41939  51.6345 144.9004 0001247 331.4366  28.6565 15.75370851 41665
FLOCK 3P-8              
1 41951U 17008D   17287.83282312  .00002891  00000-0  12479-3 0  9996
2 41951  97.4834 348.7896 0009822 127.6774 232.5355 15.23294524 36738
FLOCK 3P-51             
1 41952U 17008E   17287.67182532  .00007859  00000-0  33378-3 0  9992
2 41952  97.4841 348.7173 0009476 144.0934 216.0941 15.23303177 36723
FLOCK 3P-37             
1 41953U 17008F   17287.68246783  .00006364  00000-0  26748-3 0  9996
2 41953  97.4840 348.8476 0008636 148.0424 212.1338 15.23743468 36734
INS-1B                  
1 41954U 17008G   17287.66940653  .00003436  00000-0  15249-3 0  9993
2 41954  97.4811 348.3278 0011004 128.7372 231.4849 15.22202224 36648
FLOCK 3P-19             
1 41955U 17008H   17288.11089527  .00009235  00000-0  39112-3 0  9997
2 41955  97.4831 349.0181 0010676 127.0668 233.1546 15.23336222 36703
FLOCK 3P-24             
1 41956U 17008J   17287.64792067  .00008017  00000-0  33996-3 0  9996
2 41956  97.4830 348.5630 0010527 126.3011 233.9199 15.23340669 36718
FLOCK 3P-18             
1 41957U 17008K   17287.64858573  .00006693  00000-0  28435-3 0  9992
2 41957  97.4828 348.5658 0010575 127.6282 232.5916 15.23341670 36550
FLOCK 3P-22             
1 41958U 17008L   17287.58927042  .00003027  00000-0  13037-3 0  9994
2 41958  97.4830 348.4942 0010357 127.9821 232.2353 15.23324288 36535
FLOCK 3P-21             
1 41959U 17008M   17287.64377985  .00006890  00000-0  29325-3 0  9995
2 41959  97.4837 348.5884 0010186 129.3746 230.8394 15.23274479 36558
FLOCK 3P-28             
1 41960U 17008N   17288.16757268  .00003118  00000-0  13438-3 0  9999
2 41960  97.4834 349.1093 0010133 126.1363 234.0813 15.23288544 36716
FLOCK 3P-26             
1 41961U 17008P   17288.17608793  .00008068  00000-0  34208-3 0  9996
2 41961  97.4835 349.0954 0010362 125.4153 234.8053 15.23344541 36631
FLOCK 3P-17             
1 41962U 17008Q   17288.22278603  .00002627  00000-0  11375-3 0  9991
2 41962  97.4833 349.1874 0010120 127.7980 232.4174 15.23274179 36599
FLOCK 3P-27             
1 41963U 17008R   17287.85638044  .00005491  00000-0  23406-3 0  9999
2 41963  97.4834 348.7590 0010511 127.0214 233.1986 15.23311441 36580
FLOCK 3P-25             
1 41964U 17008S   17288.17020716  .00007825  00000-0  33235-3 0  9991
2 41964  97.4834 349.0994 0010119 126.0889 234.1286 15.23298897 36611
FLOCK 3P-4              
1 41965U 17008T   17287.77039584  .00002922  00000-0  12615-3 0  9992
2 41965  97.4834 348.7224 0009992 128.4299 231.7836 15.23282177 36654
FLOCK 3P-2              
1 41966U 17008U   17287.77135516  .00003144  00000-0  13546-3 0  9996
2 41966  97.4836 348.7262 0009910 126.9073 233.3073 15.23291937 36578
FLOCK 3P-1              
1 41967U 17008V   17287.85564958  .00006359  00000-0  27262-3 0  9993
2 41967  97.4840 348.7717 0010018 128.4820 231.7317 15.23057367 36588
FLOCK 3P-3              
1 41968U 17008W   17287.64277629  .00002919  00000-0  12605-3 0  9990
2 41968  97.4833 348.5847 0009992 127.7004 232.5140 15.23276618 36639
FLOCK 3P-6              
1 41969U 17008X   17287.76883142  .00006073  00000-0  25869-3 0  9998
2 41969  97.4838 348.7302 0009817 126.8522 233.3616 15.23298540 36561
FLOCK 3P-7              
1 41970U 17008Y   17288.14474206  .00004807  00000-0  20539-3 0  9992
2 41970  97.4838 349.1488 0009858 128.4131 231.7992 15.23305654 36623
FLOCK 3P-5              
1 41971U 17008Z   17287.83159724  .00002865  00000-0  12381-3 0  9991
2 41971  97.4839 348.8057 0009829 129.2690 230.9420 15.23267408 36519
FLOCK 3P-12             
1 41972U 17008AA  17288.22438707  .00006207  00000-0  26450-3 0  9993
2 41972  97.4839 349.1986 0009677 128.1737 232.0373 15.23279700 36727
